SES-2                   
1 37809U 11049A   26064.20939702 -.00000204  00000+0  00000+0 0  9997
2 37809   0.0213  76.6861 0002917 267.8196 166.8077  1.00271998 52927
QUETZSAT 1              
1 37826U 11054A   26064.28271736 -.00000250  00000+0  00000+0 0  9997
2 37826   0.0514 290.9614 0002782  71.0346 185.7855  1.00271080 48830
SES-4                   
1 38087U 12007A   26064.13794828 -.00000178  00000+0  00000+0 0  9991
2 38087   0.0370  65.6739 0002464 287.5330 197.3162  1.00269835 51186
SES-5                   
1 38652U 12036A   26064.22759712  .00000025  00000+0  00000+0 0  9994
2 38652   0.0582 313.3955 0002004  26.9786 269.4942  1.00272323 43412
ASTRA 2F                
1 38778U 12051A   26064.20114200  .00000141  00000+0  00000+0 0  9994
2 38778   0.0954 260.6033 0002494   9.3440 353.6007  1.00275857 40094
SES-6                   
1 39172U 13026A   26064.21867041 -.00000270  00000+0  00000+0 0  9999
2 39172   0.0642 289.4331 0001852  63.3125 208.4103  1.00271932 46689
O3B FM5                 
1 39188U 13031A   26064.09705567 -.00000027  00000+0  00000+0 0  9992
2 39188   0.0978  13.8783 0003333 321.1674  24.9322  5.00116460231833
O3B FM4                 
1 39189U 13031B   26064.01631867 -.00000027  00000+0  00000+0 0  9996
2 39189   0.0554 345.1202 0005044   6.3683   8.4967  5.00115247231838
O3B FM2                 
1 39190U 13031C   26063.08254995 -.00000028  00000+0  00000+0 0  9998
2 39190   0.0565 339.0319 0002838   0.9260  20.0242  5.00115986231850
O3B PFM                 
1 39191U 13031D   26062.29709969 -.00000028  00000+0  00000+0 0  9997
2 39191   0.0664   7.6623 0005107 349.0732   3.2541  5.00116017231378
ASTRA 2E                
1 39285U 13056A   26064.20114200  .00000142  00000+0  00000+0 0  9995
2 39285   0.0708  32.1041 0002188 306.1197 285.5926  1.00272455 45373
SES-8                   
1 39460U 13071A   26064.17058906 -.00000278  00000+0  00000+0 0  9994
2 39460   0.0563 272.1162 0001676  96.8028 310.3904  1.00272834 43398
ASTRA 5B                
1 39617U 14011B   26064.23132381  .00000128  00000+0  00000+0 0  9993
2 39617   0.0892 299.5362 0004096  27.4419 302.7363  1.00271429 43624
O3B FM3                 
1 40079U 14038A   26062.96339516 -.00000028  00000+0  00000+0 0  9993
2 40079   0.0530 353.4529 0000544  51.5720 314.9728  5.00115554207788
O3B FM7                 
1 40080U 14038B   26061.31035470 -.00000029  00000+0  00000+0 0  9996
2 40080   0.0588 348.9474 0004488 339.4059  31.6123  5.00115622212532
O3B FM6                 
1 40081U 14038C   26064.13583289 -.00000027  00000+0  00000+0 0  9994
2 40081   0.0549 351.2803 0002660 349.8083  18.8955  5.00115721212625
O3B FM8                 
1 40082U 14038D   26063.58947926 -.00000027  00000+0  00000+0 0  9995
2 40082   0.0558 350.6431 0002658 354.8269  14.5160  5.00115977212719
